start=new Date('2023-05-14T00:00:00.000Z').valueOf();
sats=[{"APOAPSIS":"540.596","INCLINATION":"53.2158","GP_ID":"231748896","MEAN_ELEMENT_THEORY":"SGP4","ARG_OF_PERICENTER":"94.5041","EPHEMERIS_TYPE":"0","PERIAPSIS":"538.895","OBJECT_NAME":"STARLINK-3877","TLE_LINE1":"1 52355U 22045AA  23133.46348873  .00000232  00000-0  32631-4 0  9994","TIME_SYSTEM":"UTC","NORAD_CAT_ID":"52355","MEAN_MOTION_DDOT":"0.0000000000000","SITE":"AFETR","RA_OF_ASC_NODE":"148.4746","MEAN_ANOMALY":"265.6091","REF_FRAME":"TEME","ECCENTRICITY":"0.00012290","FILE":"3906915","RCS_SIZE":"LARGE","CENTER_NAME":"EARTH","PERIOD":"95.438","SEMIMAJOR_AXIS":"6917.880","MEAN_MOTION_DOT":"0.00000232","LAUNCH_DATE":"2022-04-29","ELEMENT_SET_NO":"999","REV_AT_EPOCH":"6010","TLE_LINE2":"2 52355  53.2158 148.4746 0001229  94.5041 265.6091 15.08839966 60108","CLASSIFICATION_TYPE":"U","DECAY_DATE":null,"EPOCH":"2023-05-13T11:07:25.426272","MEAN_MOTION":"15.08839966","OBJECT_TYPE":"PAYLOAD","BSTAR":"0.00003263100000","OBJECT_ID":"2022-045AA","COUNTRY_CODE":"US"},{"TIME_SYSTEM":"UTC","NORAD_CAT_ID":"52356","OBJECT_NAME":"STARLINK-3801","TLE_LINE1":"1 52356U 22045AB  23133.31996969  .00000964  00000-0  78611-4 0  9994","ECCENTRICITY":"0.00011800","FILE":"3906915","RCS_SIZE":"LARGE","CENTER_NAME":"EARTH","PERIOD":"95.437","RA_OF_ASC_NODE":"149.1413","SITE":"AFETR","MEAN_MOTION_DDOT":"0.0000000000000","REF_FRAME":"TEME","MEAN_ANOMALY":"273.3267","MEAN_ELEMENT_THEORY":"SGP4","APOAPSIS":"540.542","GP_ID":"231748646","INCLINATION":"53.2155","PERIAPSIS":"538.909","EPHEMERIS_TYPE":"0","ARG_OF_PERICENTER":"86.7860","EPOCH":"2023-05-13T07:40:45.381216","MEAN_MOTION":"15.08846607","DECAY_DATE":null,"COUNTRY_CODE":"US","OBJECT_TYPE":"PAYLOAD","BSTAR":"0.00007861100000","OBJECT_ID":"2022-045AB","LAUNCH_DATE":"2022-04-29","ELEMENT_SET_NO":"999","REV_AT_EPOCH":"6008","SEMIMAJOR_AXIS":"6917.860","MEAN_MOTION_DOT":"0.00000964","TLE_LINE2":"2 52356  53.2155 149.1413 0001180  86.7860 273.3267 15.08846607 60081","CLASSIFICATION_TYPE":"U"},{"TLE_LINE2":"2 52357  53.2157 149.0982 0001246  90.2135 269.9000 15.08849800 60086","CLASSIFICATION_TYPE":"U","MEAN_MOTION_DOT":"0.00001643","SEMIMAJOR_AXIS":"6917.850","LAUNCH_DATE":"2022-04-29","REV_AT_EPOCH":"6008","ELEMENT_SET_NO":"999","OBJECT_ID":"2022-045AC","BSTAR":"0.00012126000000","OBJECT_TYPE":"PAYLOAD","COUNTRY_CODE":"US","DECAY_DATE":null,"MEAN_MOTION":"15.08849800","EPOCH":"2023-05-13T07:46:02.478720","ARG_OF_PERICENTER":"90.2135","EPHEMERIS_TYPE":"0","PERIAPSIS":"538.853","APOAPSIS":"540.577","INCLINATION":"53.2157","GP_ID":"231747395","MEAN_ELEMENT_THEORY":"SGP4","MEAN_ANOMALY":"269.9000","REF_FRAME":"TEME","MEAN_MOTION_DDOT":"0.0000000000000","SITE":"AFETR","RA_OF_ASC_NODE":"149.0982","PERIOD":"95.437","CENTER_NAME":"EARTH","ECCENTRICITY":"0.00012460","FILE":"3906915","RCS_SIZE":"LARGE","TLE_LINE1":"1 52357U 22045AC  23133.32363980  .00001643  00000-0  12126-3 0  9990","OBJECT_NAME":"STARLINK-3821","NORAD_CAT_ID":"52357","TIME_SYSTEM":"UTC"},{"COUNTRY_CODE":"US","OBJECT_ID":"2022-045AD","BSTAR":"0.00005579200000","OBJECT_TYPE":"PAYLOAD","MEAN_MOTION":"15.08838858","EPOCH":"2023-05-13T18:27:15.700608","DECAY_DATE":null,"CLASSIFICATION_TYPE":"U","TLE_LINE2":"2 52358  53.2157 147.0988 0001170  84.9167 275.1959 15.08838858 60153","LAUNCH_DATE":"2022-04-29","ELEMENT_SET_NO":"999","REV_AT_EPOCH":"6015","MEAN_MOTION_DOT":"0.00000600","SEMIMAJOR_AXIS":"6917.884","PERIOD":"95.438","CENTER_NAME":"EARTH","RCS_SIZE":"LARGE","FILE":"3907148","ECCENTRICITY":"0.00011700","REF_FRAME":"TEME","MEAN_ANOMALY":"275.1959","MEAN_MOTION_DDOT":"0.0000000000000","SITE":"AFETR","RA_OF_ASC_NODE":"147.0988","NORAD_CAT_ID":"52358","TIME_SYSTEM":"UTC","TLE_LINE1":"1 52358U 22045AD  23133.76893172  .00000600  00000-0  55792-4 0  9999","OBJECT_NAME":"STARLINK-3837","PERIAPSIS":"538.939","EPHEMERIS_TYPE":"0","ARG_OF_PERICENTER":"84.9167","MEAN_ELEMENT_THEORY":"SGP4","INCLINATION":"53.2157","GP_ID":"231780878","APOAPSIS":"540.558"},{"CLASSIFICATION_TYPE":"U","TLE_LINE2":"2 52359  53.2158 149.1219 0001301 103.8566 256.2571 15.08842609 60086","MEAN_MOTION_DOT":"0.00001127","SEMIMAJOR_AXIS":"6917.872","REV_AT_EPOCH":"6008","LAUNCH_DATE":"2022-04-29","ELEMENT_SET_NO":"999","OBJECT_ID":"2022-045AE","OBJECT_TYPE":"PAYLOAD","BSTAR":"0.00008888800000","COUNTRY_CODE":"US","DECAY_DATE":null,"MEAN_MOTION":"15.08842609","EPOCH":"2023-05-13T07:42:07.951104","ARG_OF_PERICENTER":"103.8566","PERIAPSIS":"538.837","EPHEMERIS_TYPE":"0","GP_ID":"231748396","INCLINATION":"53.2158","APOAPSIS":"540.637","MEAN_ELEMENT_THEORY":"SGP4","REF_FRAME":"TEME","MEAN_ANOMALY":"256.2571","SITE":"AFETR","RA_OF_ASC_NODE":"149.1219","MEAN_MOTION_DDOT":"0.0000000000000","CENTER_NAME":"EARTH","PERIOD":"95.437","FILE":"3906915","RCS_SIZE":"LARGE","ECCENTRICITY":"0.00013010","TLE_LINE1":"1 52359U 22045AE  23133.32092536  .00001127  00000-0  88888-4 0  9994","OBJECT_NAME":"STARLINK-3853","NORAD_CAT_ID":"52359","TIME_SYSTEM":"UTC"},{"CLASSIFICATION_TYPE":"U","TLE_LINE2":"2 52360  53.2161 139.2078 0001181  87.8707 272.2420 15.08843985 60202","REV_AT_EPOCH":"6020","LAUNCH_DATE":"2022-04-29","ELEMENT_SET_NO":"999","MEAN_MOTION_DOT":"0.00001077","SEMIMAJOR_AXIS":"6917.868","COUNTRY_CODE":"US","OBJECT_ID":"2022-045AF","BSTAR":"0.00008571100000","OBJECT_TYPE":"PAYLOAD","MEAN_MOTION":"15.08843985","EPOCH":"2023-05-13T07:10:16.794336","DECAY_DATE":null,"EPHEMERIS_TYPE":"0","PERIAPSIS":"538.916","ARG_OF_PERICENTER":"87.8707","MEAN_ELEMENT_THEORY":"SGP4","GP_ID":"231749147","INCLINATION":"53.2161","APOAPSIS":"540.550","PERIOD":"95.437","CENTER_NAME":"EARTH","FILE":"3906915","RCS_SIZE":"LARGE","ECCENTRICITY":"0.00011810","REF_FRAME":"TEME","MEAN_ANOMALY":"272.2420","MEAN_MOTION_DDOT":"0.0000000000000","SITE":"AFETR","RA_OF_ASC_NODE":"139.2078","NORAD_CAT_ID":"52360","TIME_SYSTEM":"UTC","TLE_LINE1":"1 52360U 22045AF  23133.29880549  .00001077  00000-0  85711-4 0  9997","OBJECT_NAME":"STARLINK-3824"},{"GP_ID":"231779618","INCLINATION":"53.2154","APOAPSIS":"540.461","MEAN_ELEMENT_THEORY":"SGP4","ARG_OF_PERICENTER":"98.4419","EPHEMERIS_TYPE":"0","PERIAPSIS":"539.037","TLE_LINE1":"1 52361U 22045AG  23133.77628914  .00000574  00000-0  54130-4 0  9999","OBJECT_NAME":"STARLINK-3728","NORAD_CAT_ID":"52361","TIME_SYSTEM":"UTC","REF_FRAME":"TEME","MEAN_ANOMALY":"261.6690","MEAN_MOTION_DDOT":"0.0000000000000","SITE":"AFETR","RA_OF_ASC_NODE":"147.0652","PERIOD":"95.438","CENTER_NAME":"EARTH","RCS_SIZE":"LARGE","FILE":"3907148","ECCENTRICITY":"0.00010290","MEAN_MOTION_DOT":"0.00000574","SEMIMAJOR_AXIS":"6917.884","ELEMENT_SET_NO":"999","LAUNCH_DATE":"2022-04-29","REV_AT_EPOCH":"6015","CLASSIFICATION_TYPE":"U","TLE_LINE2":"2 52361  53.2154 147.0652 0001029  98.4419 261.6690 15.08838728 60153","DECAY_DATE":null,"MEAN_MOTION":"15.08838728","EPOCH":"2023-05-13T18:37:51.381696","OBJECT_ID":"2022-045AG","OBJECT_TYPE":"PAYLOAD","BSTAR":"0.00005413000000","COUNTRY_CODE":"US"},{"TLE_LINE2":"2 52362  53.2161 139.2235 0001280  97.6012 262.5126 15.08842718 60216","CLASSIFICATION_TYPE":"U","SEMIMAJOR_AXIS":"6917.872","MEAN_MOTION_DOT":"0.00001272","ELEMENT_SET_NO":"999","LAUNCH_DATE":"2022-04-29","REV_AT_EPOCH":"6021","BSTAR":"0.00009796200000","OBJECT_TYPE":"PAYLOAD","OBJECT_ID":"2022-045AH","COUNTRY_CODE":"US","DECAY_DATE":null,"EPOCH":"2023-05-13T07:04:58.930464","MEAN_MOTION":"15.08842718","ARG_OF_PERICENTER":"97.6012","PERIAPSIS":"538.852","EPHEMERIS_TYPE":"0","APOAPSIS":"540.623","INCLINATION":"53.2161","GP_ID":"231748145","MEAN_ELEMENT_THEORY":"SGP4","MEAN_MOTION_DDOT":"0.0000000000000","SITE":"AFETR","RA_OF_ASC_NODE":"139.2235","REF_FRAME":"TEME","MEAN_ANOMALY":"262.5126","ECCENTRICITY":"0.00012800","RCS_SIZE":"LARGE","FILE":"3906915","PERIOD":"95.437","CENTER_NAME":"EARTH","OBJECT_NAME":"STARLINK-3848","TLE_LINE1":"1 52362U 22045AH  23133.29512651  .00001272  00000-0  97962-4 0  9993","TIME_SYSTEM":"UTC","NORAD_CAT_ID":"52362"},{"DECAY_DATE":null,"MEAN_MOTION":"15.08842943","EPOCH":"2023-05-13T18:32:33.409824","OBJECT_ID":"2022-045AJ","OBJECT_TYPE":"PAYLOAD","BSTAR":"0.00010861000000","COUNTRY_CODE":"US","MEAN_MOTION_DOT":"0.00001441","SEMIMAJOR_AXIS":"6917.871","LAUNCH_DATE":"2022-04-29","ELEMENT_SET_NO":"999","REV_AT_EPOCH":"6015","TLE_LINE2":"2 52363  53.2161 147.0805 0001113  79.6006 280.5111 15.08842943 60152","CLASSIFICATION_TYPE":"U","TLE_LINE1":"1 52363U 22045AJ  23133.77260891  .00001441  00000-0  10861-3 0  9993","OBJECT_NAME":"STARLINK-3830","NORAD_CAT_ID":"52363","TIME_SYSTEM":"UTC","MEAN_ANOMALY":"280.5111","REF_FRAME":"TEME","MEAN_MOTION_DDOT":"0.0000000000000","SITE":"AFETR","RA_OF_ASC_NODE":"147.0805","PERIOD":"95.437","CENTER_NAME":"EARTH","ECCENTRICITY":"0.00011130","RCS_SIZE":"LARGE","FILE":"3907148","APOAPSIS":"540.506","INCLINATION":"53.2161","GP_ID":"231780614","MEAN_ELEMENT_THEORY":"SGP4","ARG_OF_PERICENTER":"79.6006","PERIAPSIS":"538.966","EPHEMERIS_TYPE":"0"},{"COUNTRY_CODE":"US","OBJECT_ID":"2022-045AK","OBJECT_TYPE":"PAYLOAD","BSTAR":"0.00009346400000","MEAN_MOTION":"15.08839794","EPOCH":"2023-05-13T17:51:28.587168","DECAY_DATE":null,"CLASSIFICATION_TYPE":"U","TLE_LINE2":"2 52364  53.2158 137.1264 0000909  83.7624 276.3472 15.08839794 60289","ELEMENT_SET_NO":"999","LAUNCH_DATE":"2022-04-29","REV_AT_EPOCH":"6028","MEAN_MOTION_DOT":"0.00001200","SEMIMAJOR_AXIS":"6917.881","PERIOD":"95.438","CENTER_NAME":"EARTH","FILE":"3907148","RCS_SIZE":"LARGE","ECCENTRICITY":"0.00009090","MEAN_ANOMALY":"276.3472","REF_FRAME":"TEME","SITE":"AFETR","RA_OF_ASC_NODE":"137.1264","MEAN_MOTION_DDOT":"0.0000000000000","NORAD_CAT_ID":"52364","TIME_SYSTEM":"UTC","TLE_LINE1":"1 52364U 22045AK  23133.74408087  .00001200  00000-0  93464-4 0  9996","OBJECT_NAME":"STARLINK-3820","EPHEMERIS_TYPE":"0","PERIAPSIS":"539.117","ARG_OF_PERICENTER":"83.7624","MEAN_ELEMENT_THEORY":"SGP4","INCLINATION":"53.2158","GP_ID":"231779876","APOAPSIS":"540.375"}];
